{
    "provider": {
        "name": "Activate Service"
    },
    "consumer": {
        "name": "Account App"
    },
    "interactions": [
        {
            "description": "Activate user with empty request body",
            "request": {
                "method": "post",
                "path": "/users/activate"
            },
            "response": {
                "status": 400,
                "headers": {
                    "Content-Type": "application/json; charset=UTF-8"
                }
            }
        },
        {
            "description": "Activate user with validate request body",
            "request": {
                "method": "post",
                "path": "/users/activate",
                "headers": {
                    "Accept": "application/json"
                },
                "body": {
                    "activationToken": "activation-token"
                }
            },
            "response": {
                "status": 200,
                "headers": {
                    "Content-Type": "application/json; charset=UTF-8"
                },
                "body": {
                    "status": "success"
                }
            }
        },
        {
            "description": "Resi auto address service",
            "request": {
                "method": "get",
                "path": "/autocomplete/Vic"
            },
            "response": {
                "status": 200,
                "headers": {
                    "Content-Type": "application/json; charset=UTF-8"
                },
                "body": [{"streetaddress":"33 Vic Rd","suburb":"MIDDLESEX","state":"WA","postcode":"6258","detailurl":"/formataddressbyid/AU414a10a1f2f247a380fdd01f0346f57e"},{"streetaddress":"53 Vic Rd","suburb":"MIDDLESEX","state":"WA","postcode":"6258","detailurl":"/formataddressbyid/AUee4bce2877e447d682b34ca3732b4f29"},{"streetaddress":"54 Vic Rd","suburb":"MIDDLESEX","state":"WA","postcode":"6258","detailurl":"/formataddressbyid/AUb2acc5e9afa149ceb77296e46d596942"},{"streetaddress":"938 Vic Rd","suburb":"MIDDLESEX","state":"WA","postcode":"6258","detailurl":"/formataddressbyid/AUca950c1809b04cde9ac672ae1547e40d"},{"streetaddress":"1-3 Vicar St","suburb":"COOGEE","state":"NSW","postcode":"2034","detailurl":"/formataddressbyid/AU14b821def232466ba7cb965b1c52f1ff"},{"streetaddress":"Unit 1 1-3 Vicar St","suburb":"COOGEE","state":"NSW","postcode":"2034","detailurl":"/formataddressbyid/AU1cfd625cf6f94fa4b9e808a2ff93f2d2"},{"streetaddress":"Unit 10 1-3 Vicar St","suburb":"COOGEE","state":"NSW","postcode":"2034","detailurl":"/formataddressbyid/AUe9ce540e221f4018bd2df5980bb41326"},{"streetaddress":"Unit 11 1-3 Vicar St","suburb":"COOGEE","state":"NSW","postcode":"2034","detailurl":"/formataddressbyid/AU8b1365735a4845d1858e4df462e4cfcc"},{"streetaddress":"Unit 12 1-3 Vicar St","suburb":"COOGEE","state":"NSW","postcode":"2034","detailurl":"/formataddressbyid/AU1cb14f2488a34e96996438e948ba8e8e"},{"streetaddress":"Unit 13 1-3 Vicar St","suburb":"COOGEE","state":"NSW","postcode":"2034","detailurl":"/formataddressbyid/AU0a9f2adfccd54a66bae5a939790ab714"},{"streetaddress":"Unit 14 1-3 Vicar St","suburb":"COOGEE","state":"NSW","postcode":"2034","detailurl":"/formataddressbyid/AUa66cb99f15d344eba43c426b42e1e421"},{"streetaddress":"Unit 15 1-3 Vicar St","suburb":"COOGEE","state":"NSW","postcode":"2034","detailurl":"/formataddressbyid/AUdbb8f17fe49944d596cc3e18ce476e06"},{"streetaddress":"Unit 16 1-3 Vicar St","suburb":"COOGEE","state":"NSW","postcode":"2034","detailurl":"/formataddressbyid/AU1bcd0959591a4aa59a6e30a2ac11e16b"},{"streetaddress":"Unit 17 1-3 Vicar St","suburb":"COOGEE","state":"NSW","postcode":"2034","detailurl":"/formataddressbyid/AU9b4a3c94c54f4b5aafce1a0df91bcda5"},{"streetaddress":"Unit 18 1-3 Vicar St","suburb":"COOGEE","state":"NSW","postcode":"2034","detailurl":"/formataddressbyid/AUd3acd3a5a7dd43c8ae375d7af29b93ea"},{"streetaddress":"Unit 19 1-3 Vicar St","suburb":"COOGEE","state":"NSW","postcode":"2034","detailurl":"/formataddressbyid/AUa442550993794e30ab953bcd35b6ef76"},{"streetaddress":"Unit 2 1-3 Vicar St","suburb":"COOGEE","state":"NSW","postcode":"2034","detailurl":"/formataddressbyid/AU533465b90a97479f862142395353ced1"},{"streetaddress":"Unit 20 1-3 Vicar St","suburb":"COOGEE","state":"NSW","postcode":"2034","detailurl":"/formataddressbyid/AU1a94a00a4821421eb839322e1d32e38b"},{"streetaddress":"Unit 21 1-3 Vicar St","suburb":"COOGEE","state":"NSW","postcode":"2034","detailurl":"/formataddressbyid/AUe229d6a8ea22495db47db679dbb21126"},{"streetaddress":"Unit 22 1-3 Vicar St","suburb":"COOGEE","state":"NSW","postcode":"2034","detailurl":"/formataddressbyid/AU9426e6e4da6e456ba88d9757dcacf59d"}]
            }
        }
    ]
}